{
  "type": "FeatureCollection",
  "features": [
    {
      "type": "Feature",
      "properties": {
        "fid": 1,
        "id": 14746,
        "road_class": "NH",
        "road_refno": "NH04",
        "road_name": "Birtamod-Chandragadi-Bhadrapur-Mechi Pul",
        "link_code": "NH04-001",
        "link_name": "Birtamod - Chandragadhi",
        "link_ori": null,
        "link_des": null,
        "link_from": 0,
        "link_to": 12.53,
        "link_len": 12.53,
        "div_name": "Damak",
        "dist_name": "Jhapa",
        "dyear": "2025",
        "upload_by": "P.Malla",
        "add_date": "2024-06-04",
        "old_link": "F00101",
        "shp_len": 16.852,
        "orderid": null,
        "road_code": null,
        "iyear": null,
        "inotes": null,
        "iupdate": null,
        "iprogram": null,
        "from_ch": null,
        "to_ch": null,
        "from_long": null,
        "from_lat": null,
        "to_long": null,
        "to_lat": null,
        "pave_type": null,
        "pave_thick": null,
        "base_thick": null,
        "subbase_th": null,
        "pave_width": null,
        "for_width": null,
        "no_lanes": null,
        "subgrade_t": null,
        "left_shoul": null,
        "left_sho_1": null,
        "right_shou": null,
        "right_sh_1": null,
        "constructi": null,
        "last_resur": null,
        "dcode": null,
        "sdi_value": null,
        "iri_value": null,
        "aadt_value": null,
        "com_veh": null,
        "layer": "links_2022_23_44N1",
        "path": "E:/output/links_2022_23_44N1.shp"
      },
      "geometry": {
        "type": "MultiLineString",
        "coordinates": [
          [
            [
              87.9919104,
              26.6430761
            ],
            [
              87.9882558,
              26.6283578
            ],
            [
              87.9888342,
              26.6216064
            ],
            [
              88,
              26.6107189
            ],
            [
              88,
              26.6039797
            ],
            [
              88,
              26.6012666
            ],
            [
              88,
              26.5993475
            ],
            [
              88,
              26.594318
            ],
            [
              88,
              26.5863371
            ],
            [
              88,
              26.5852222
            ],
            [
              88,
              26.581392
            ],
            [
              88,
              26.5682816
            ],
            [
              88,
              26.5680412
            ],
            [
              88,
              26.5682073
            ],
            [
              88,
              26.5556557
            ],
            [
              88,
              26.5520586
            ],
            [
              88,
              26.5505483
            ],
            [
              88,
              26.5489832
            ],
            [
              88,
              26.5475735
            ],
            [
              88,
              26.5441182
            ],
            [
              88,
              26.5421336
            ]
          ]
        ]
      }
    },
    {
      "type": "Feature",
      "properties": {
        "fid": 2,
        "id": 14746,
        "road_class": "NH",
        "road_refno": "NH04",
        "road_name": "Birtamod-Chandragadi-Bhadrapur-Mechi Pul",
        "link_code": "NH04-001",
        "link_name": "Birtamod - Chandragadhi",
        "link_ori": null,
        "link_des": null,
        "link_from": 0,
        "link_to": 12.53,
        "link_len": 12.53,
        "div_name": "Damak",
        "dist_name": "Jhapa",
        "dyear": "2025",
        "upload_by": "P.Malla",
        "add_date": "2024-06-04",
        "old_link": "F00101",
        "shp_len": 16.852,
        "orderid": null,
        "road_code": null,
        "iyear": null,
        "inotes": null,
        "iupdate": null,
        "iprogram": null,
        "from_ch": null,
        "to_ch": null,
        "from_long": null,
        "from_lat": null,
        "to_long": null,
        "to_lat": null,
        "pave_type": null,
        "pave_thick": null,
        "base_thick": null,
        "subbase_th": null,
        "pave_width": null,
        "for_width": null,
        "no_lanes": null,
        "subgrade_t": null,
        "left_shoul": null,
        "left_sho_1": null,
        "right_shou": null,
        "right_sh_1": null,
        "constructi": null,
        "last_resur": null,
        "dcode": null,
        "sdi_value": null,
        "iri_value": null,
        "aadt_value": null,
        "com_veh": null,
        "layer": "links_2022_23_44N2",
        "path": "E:/output/links_2022_23_44N2.shp"
      },
      "geometry": {
        "type": "MultiLineString",
        "coordinates": [
          [
            [
              87.9919104,
              26.6430761
            ],
            [
              87.991873,
              26.6429501
            ],
            [
              87.9917671,
              26.6425031
            ],
            [
              87.9914637,
              26.6412554
            ],
            [
              87.9913565,
              26.6408054
            ],
            [
              87.991318,
              26.6406552
            ],
            [
              87.9910228,
              26.6395093
            ],
            [
              87.9905583,
              26.6377045
            ],
            [
              87.9901927,
              26.6361625
            ],
            [
              87.9901936,
              26.6361626
            ],
            [
              87.9898215,
              26.6346939
            ],
            [
              87.9898183,
              26.6346807
            ],
            [
              87.989641,
              26.63392
            ],
            [
              87.9894531,
              26.6331659
            ],
            [
              87.989448,
              26.6331523
            ],
            [
              87.9894494,
              26.6331527
            ],
            [
              87.9891694,
              26.6320363
            ],
            [
              87.9890037,
              26.6313579
            ],
            [
              87.9889648,
              26.6312565
            ],
            [
              87.98886,
              26.6308409
            ],
            [
              87.9885432,
              26.629573
            ],
            [
              87.9885418,
              26.6295625
            ],
            [
              87.988537,
              26.6295251
            ],
            [
              87.9883332,
              26.6287398
            ],
            [
              87.9882558,
              26.6283578
            ],
            [
              87.9882263,
              26.6280845
            ],
            [
              87.9882153,
              26.6278572
            ],
            [
              87.9882158,
              26.6278461
            ],
            [
              87.988219,
              26.6278474
            ],
            [
              87.9882227,
              26.6266749
            ],
            [
              87.9882514,
              26.6260585
            ],
            [
              87.9882561,
              26.6260132
            ],
            [
              87.9882703,
              26.625612
            ],
            [
              87.9882738,
              26.6255159
            ],
            [
              87.9882742,
              26.6255025
            ],
            [
              87.9882926,
              26.6253938
            ],
            [
              87.9883037,
              26.6253576
            ],
            [
              87.9883221,
              26.6253181
            ],
            [
              87.9883626,
              26.6252654
            ],
            [
              87.9884216,
              26.6251863
            ],
            [
              87.9885911,
              26.6248801
            ],
            [
              87.988651,
              26.6247585
            ],
            [
              87.98876,
              26.6243248
            ],
            [
              87.988847,
              26.623914
            ],
            [
              87.9889137,
              26.623545
            ],
            [
              87.9888957,
              26.6230257
            ],
            [
              87.9888563,
              26.6226801
            ],
            [
              87.988837,
              26.6224453
            ],
            [
              87.9888212,
              26.6222528
            ],
            [
              87.9888084,
              26.6220971
            ],
            [
              87.988794,
              26.6217582
            ],
            [
              87.9887946,
              26.6217455
            ],
            [
              87.9887974,
              26.6216854
            ],
            [
              87.9888342,
              26.6216064
            ],
            [
              87.9888447,
              26.6215963
            ],
            [
              87.9888784,
              26.6215636
            ],
            [
              87.989,
              26.6214549
            ],
            [
              87.989631,
              26.6210088
            ],
            [
              87.9896511,
              26.6209966
            ],
            [
              87.9897666,
              26.6209123
            ],
            [
              87.9898692,
              26.6208456
            ],
            [
              87.9899505,
              26.620783
            ],
            [
              87.9901015,
              26.6206743
            ],
            [
              87.9903631,
              26.6204998
            ],
            [
              87.9906394,
              26.6203055
            ],
            [
              87.9909709,
              26.6200782
            ],
            [
              87.9916193,
              26.6196402
            ],
            [
              87.9920209,
              26.6193569
            ],
            [
              87.9921314,
              26.6192746
            ],
            [
              87.993314,
              26.6185204
            ],
            [
              87.9935792,
              26.618359
            ],
            [
              87.9938482,
              26.6182042
            ],
            [
              87.9948655,
              26.617643
            ],
            [
              87.9955944,
              26.6172095
            ],
            [
              87.996567,
              26.6166365
            ],
            [
              87.9968333,
              26.6164862
            ],
            [
              87.9968503,
              26.6164747
            ],
            [
              87.9968918,
              26.6164471
            ],
            [
              87.9969851,
              26.6163852
            ],
            [
              87.9971208,
              26.6163175
            ],
            [
              87.9973894,
              26.6161699
            ],
            [
              87.9977943,
              26.6159381
            ],
            [
              87.997994,
              26.6158178
            ],
            [
              87.9991999,
              26.615131
            ],
            [
              88,
              26.6146142
            ],
            [
              88,
              26.6142428
            ],
            [
              88,
              26.6135668
            ],
            [
              88,
              26.6129583
            ],
            [
              88,
              26.6127221
            ],
            [
              88,
              26.6122899
            ],
            [
              88,
              26.6117255
            ],
            [
              88,
              26.61111
            ],
            [
              88,
              26.6107189
            ],
            [
              88,
              26.6104635
            ],
            [
              88,
              26.6100254
            ],
            [
              88,
              26.6096601
            ],
            [
              88,
              26.609341
            ],
            [
              88,
              26.6091307
            ],
            [
              88,
              26.6089176
            ],
            [
              88,
              26.6085286
            ],
            [
              88,
              26.6081587
            ],
            [
              88,
              26.6073304
            ],
            [
              88,
              26.607004
            ],
            [
              88,
              26.6067399
            ],
            [
              88,
              26.6064795
            ],
            [
              88,
              26.6062597
            ],
            [
              88,
              26.6061022
            ],
            [
              88,
              26.6057011
            ],
            [
              88,
              26.6051284
            ],
            [
              88,
              26.6047785
            ],
            [
              88,
              26.6043697
            ],
            [
              88,
              26.6041034
            ],
            [
              88,
              26.6040029
            ],
            [
              88,
              26.6039797
            ],
            [
              88,
              26.6039543
            ],
            [
              88,
              26.6039105
            ],
            [
              88,
              26.6037946
            ],
            [
              88,
              26.6033505
            ],
            [
              88,
              26.602988
            ],
            [
              88,
              26.6025171
            ],
            [
              88,
              26.6023373
            ],
            [
              88,
              26.6015608
            ],
            [
              88,
              26.6012666
            ],
            [
              88,
              26.6011046
            ],
            [
              88,
              26.6009818
            ],
            [
              88,
              26.6007072
            ],
            [
              88,
              26.6004041
            ],
            [
              88,
              26.6000307
            ],
            [
              88,
              26.5997927
            ],
            [
              88,
              26.5996334
            ],
            [
              88,
              26.5993475
            ],
            [
              88,
              26.5989856
            ],
            [
              88,
              26.5982557
            ],
            [
              88,
              26.5979002
            ],
            [
              88,
              26.5974901
            ],
            [
              88,
              26.5971561
            ],
            [
              88,
              26.5971512
            ],
            [
              88,
              26.5969634
            ],
            [
              88,
              26.5969538
            ],
            [
              88,
              26.5966121
            ],
            [
              88,
              26.5962081
            ],
            [
              88,
              26.5959558
            ],
            [
              88,
              26.5951919
            ],
            [
              88,
              26.594824
            ],
            [
              88,
              26.594318
            ],
            [
              88,
              26.5940879
            ],
            [
              88,
              26.5939257
            ],
            [
              88,
              26.5927445
            ],
            [
              88,
              26.5924196
            ],
            [
              88,
              26.5920213
            ],
            [
              88,
              26.5913373
            ],
            [
              88,
              26.5910656
            ],
            [
              88,
              26.5906594
            ],
            [
              88,
              26.5904561
            ],
            [
              88,
              26.5901172
            ],
            [
              88,
              26.5898737
            ],
            [
              88,
              26.5893188
            ],
            [
              88,
              26.588818
            ],
            [
              88,
              26.5886083
            ],
            [
              88,
              26.5884692
            ],
            [
              88,
              26.5880761
            ],
            [
              88,
              26.5876209
            ],
            [
              88,
              26.5872494
            ],
            [
              88,
              26.5868869
            ],
            [
              88,
              26.5866229
            ],
            [
              88,
              26.5864648
            ],
            [
              88,
              26.5863983
            ],
            [
              88,
              26.5863959
            ],
            [
              88,
              26.5863371
            ],
            [
              88,
              26.5861988
            ],
            [
              88,
              26.5860997
            ],
            [
              88,
              26.5859711
            ],
            [
              88,
              26.5858093
            ],
            [
              88,
              26.5856894
            ],
            [
              88,
              26.585485
            ],
            [
              88,
              26.5854117
            ],
            [
              88,
              26.5853788
            ],
            [
              88,
              26.5853505
            ],
            [
              88,
              26.5853158
            ],
            [
              88,
              26.5852844
            ],
            [
              88,
              26.5852222
            ],
            [
              88,
              26.5851477
            ],
            [
              88,
              26.5849478
            ],
            [
              88,
              26.5847278
            ],
            [
              88,
              26.5844654
            ],
            [
              88,
              26.5839868
            ],
            [
              88,
              26.5835372
            ],
            [
              88,
              26.5829628
            ],
            [
              88,
              26.5824869
            ],
            [
              88,
              26.5821031
            ],
            [
              88,
              26.5818283
            ],
            [
              88,
              26.58155
            ],
            [
              88,
              26.5814255
            ],
            [
              88,
              26.581392
            ],
            [
              88,
              26.5810716
            ],
            [
              88,
              26.5805865
            ],
            [
              88,
              26.5799342
            ],
            [
              88,
              26.5793214
            ],
            [
              88,
              26.5790884
            ],
            [
              88,
              26.5782632
            ],
            [
              88,
              26.5778622
            ],
            [
              88,
              26.5774865
            ],
            [
              88,
              26.5772674
            ],
            [
              88,
              26.5765951
            ],
            [
              88,
              26.5760886
            ],
            [
              88,
              26.5757978
            ],
            [
              88,
              26.5755016
            ],
            [
              88,
              26.5751765
            ],
            [
              88,
              26.5748854
            ],
            [
              88,
              26.5748443
            ],
            [
              88,
              26.5746305
            ],
            [
              88,
              26.5739308
            ],
            [
              88,
              26.5736789
            ],
            [
              88,
              26.5733293
            ],
            [
              88,
              26.5728164
            ],
            [
              88,
              26.5723695
            ],
            [
              88,
              26.5716541
            ],
            [
              88,
              26.570809
            ],
            [
              88,
              26.570442
            ],
            [
              88,
              26.5694016
            ],
            [
              88,
              26.5687128
            ],
            [
              88,
              26.5682816
            ],
            [
              88,
              26.5681852
            ],
            [
              88,
              26.5680937
            ],
            [
              88,
              26.5680788
            ],
            [
              88,
              26.5680603
            ],
            [
              88,
              26.5680412
            ],
            [
              88,
              26.5680704
            ],
            [
              88,
              26.5680829
            ],
            [
              88,
              26.5680924
            ],
            [
              88,
              26.5681218
            ],
            [
              88,
              26.5681582
            ],
            [
              88,
              26.5682207
            ],
            [
              88,
              26.5682912
            ],
            [
              88,
              26.5682982
            ],
            [
              88,
              26.5682939
            ],
            [
              88,
              26.5682935
            ],
            [
              88,
              26.5682761
            ],
            [
              88,
              26.5682516
            ],
            [
              88,
              26.5682073
            ],
            [
              88,
              26.5681439
            ],
            [
              88,
              26.5673404
            ],
            [
              88,
              26.5659853
            ],
            [
              88,
              26.5652429
            ],
            [
              88,
              26.5641302
            ],
            [
              88,
              26.5636426
            ],
            [
              88,
              26.562602
            ],
            [
              88,
              26.5621657
            ],
            [
              88,
              26.561362
            ],
            [
              88,
              26.5609067
            ],
            [
              88,
              26.5604005
            ],
            [
              88,
              26.5595376
            ],
            [
              88,
              26.5595303
            ],
            [
              88,
              26.5591419
            ],
            [
              88,
              26.558897
            ],
            [
              88,
              26.5585301
            ],
            [
              88,
              26.5583355
            ],
            [
              88,
              26.5582214
            ],
            [
              88,
              26.5581843
            ],
            [
              88,
              26.5580561
            ],
            [
              88,
              26.5578682
            ],
            [
              88,
              26.5576973
            ],
            [
              88,
              26.5575825
            ],
            [
              88,
              26.5574453
            ],
            [
              88,
              26.5572136
            ],
            [
              88,
              26.5570422
            ],
            [
              88,
              26.5565958
            ],
            [
              88,
              26.5563632
            ],
            [
              88,
              26.5561494
            ],
            [
              88,
              26.5556557
            ],
            [
              88,
              26.5553576
            ],
            [
              88,
              26.5551345
            ],
            [
              88,
              26.5548569
            ],
            [
              88,
              26.5545484
            ],
            [
              88,
              26.5541651
            ],
            [
              88,
              26.5537933
            ],
            [
              88,
              26.553472
            ],
            [
              88,
              26.553131
            ],
            [
              88,
              26.5527247
            ],
            [
              88,
              26.5526214
            ],
            [
              88,
              26.5525328
            ],
            [
              88,
              26.5524651
            ],
            [
              88,
              26.5524112
            ],
            [
              88,
              26.5523797
            ],
            [
              88,
              26.5523457
            ],
            [
              88,
              26.5521188
            ],
            [
              88,
              26.5520904
            ],
            [
              88,
              26.5520586
            ],
            [
              88,
              26.5520461
            ],
            [
              88,
              26.5520325
            ],
            [
              88,
              26.5520294
            ],
            [
              88,
              26.5520211
            ],
            [
              88,
              26.5519334
            ],
            [
              88,
              26.5519116
            ],
            [
              88,
              26.5519025
            ],
            [
              88,
              26.5517173
            ],
            [
              88,
              26.5515199
            ],
            [
              88,
              26.5514837
            ],
            [
              88,
              26.5514659
            ],
            [
              88,
              26.5514446
            ],
            [
              88,
              26.5514219
            ],
            [
              88,
              26.5513667
            ],
            [
              88,
              26.5513026
            ],
            [
              88,
              26.551267
            ],
            [
              88,
              26.5512382
            ],
            [
              88,
              26.5512097
            ],
            [
              88,
              26.5511759
            ],
            [
              88,
              26.5511743
            ],
            [
              88,
              26.5511109
            ],
            [
              88,
              26.5510657
            ],
            [
              88,
              26.551044
            ],
            [
              88,
              26.5508567
            ],
            [
              88,
              26.5507286
            ],
            [
              88,
              26.5506373
            ],
            [
              88,
              26.5505483
            ],
            [
              88,
              26.5505307
            ],
            [
              88,
              26.5505252
            ],
            [
              88,
              26.5504629
            ],
            [
              88,
              26.5503735
            ],
            [
              88,
              26.5502965
            ],
            [
              88,
              26.5502082
            ],
            [
              88,
              26.5498475
            ],
            [
              88,
              26.549678
            ],
            [
              88,
              26.5496398
            ],
            [
              88,
              26.5496003
            ],
            [
              88,
              26.5495189
            ],
            [
              88,
              26.5493844
            ],
            [
              88,
              26.5493693
            ],
            [
              88,
              26.549238
            ],
            [
              88,
              26.5491037
            ],
            [
              88,
              26.5490916
            ],
            [
              88,
              26.5490124
            ],
            [
              88,
              26.5489832
            ],
            [
              88,
              26.5489437
            ],
            [
              88,
              26.5487857
            ],
            [
              88,
              26.5484913
            ],
            [
              88,
              26.5483803
            ],
            [
              88,
              26.5483384
            ],
            [
              88,
              26.5482249
            ],
            [
              88,
              26.5479903
            ],
            [
              88,
              26.5478469
            ],
            [
              88,
              26.5476512
            ],
            [
              88,
              26.5476152
            ],
            [
              88,
              26.5475735
            ],
            [
              88,
              26.5475365
            ],
            [
              88,
              26.5474936
            ],
            [
              88,
              26.5474669
            ],
            [
              88,
              26.5474638
            ],
            [
              88,
              26.5474397
            ],
            [
              88,
              26.5473827
            ],
            [
              88,
              26.5473019
            ],
            [
              88,
              26.5471781
            ],
            [
              88,
              26.5465367
            ],
            [
              88,
              26.5463175
            ],
            [
              88,
              26.5457158
            ],
            [
              88,
              26.5455535
            ],
            [
              88,
              26.5453756
            ],
            [
              88,
              26.5448727
            ],
            [
              88,
              26.5446644
            ],
            [
              88,
              26.5443873
            ],
            [
              88,
              26.5441182
            ],
            [
              88,
              26.5439273
            ],
            [
              88,
              26.5433871
            ],
            [
              88,
              26.5431709
            ],
            [
              88,
              26.5429395
            ],
            [
              88,
              26.5427318
            ],
            [
              88,
              26.5425745
            ],
            [
              88,
              26.542368
            ],
            [
              88,
              26.5422766
            ],
            [
              88,
              26.542256
            ],
            [
              88,
              26.5421336
            ]
          ]
        ]
      }
    }
  ]
}